#aV2019  6 12  0  0  0.00000000     288 DD+AD WGS84 FIT  NGA
## 2057 259200.00000000   300.00000000 58646 0.0000000000000
+   31     1  2  3  5  6  7  8  9 10 11 12 13 14 15 16 17 18
+         19 20 21 22 23 24 25 26 27 28 29 30 31 32  0  0  0
+          0  0  0  0  0  0  0  0  0  0  0  0  0  0  0  0  0
+          0  0  0  0  0  0  0  0  0  0  0  0  0  0  0  0  0
+          0  0  0  0  0  0  0  0  0  0  0  0  0  0  0  0  0
++         2  2  2  2  2  2  2  2  2  2  2  2  2  2  2  2  2
++         2  2  2  2  2  2  2  2  2  2  2  2  2  2  0  0  0
++         0  0  0  0  0  0  0  0  0  0  0  0  0  0  0  0  0
++         0  0  0  0  0  0  0  0  0  0  0  0  0  0  0  0  0
++         0  0  0  0  0  0  0  0  0  0  0  0  0  0  0  0  0
%c cc cc ccc ccc cccc cccc cccc cccc ccccc ccccc ccccc ccccc
%c cc cc ccc ccc cccc cccc cccc cccc ccccc ccccc ccccc ccccc
%f  0.0000000  0.000000000  0.00000000000  0.000000000000000
%f  0.0000000  0.000000000  0.00000000000  0.000000000000000
%i    0    0    0    0      0      0      0      0         0
%i    0    0    0    0      0      0      0      0         0
/*      NGA, ST. LOUIS,MO.                                  
/*   EPHEMERIS COMPUTED FROM 2 DAYS OF DATA                 
/*   EPOCHA v5 SMOOTHER                                     
/*   G1762 IERS2010 SATAF SATAPC                            
*  2019  6 12 13 20  0.00000000
P  1   5655.173477 -17723.526672 -19014.247974    -39.278179                    
V  1  21548.635086 -10247.639657  16435.767453     -0.096322                    
P  2 -21504.027354  15384.001216   1985.492065   -235.602675                    
V  2  -3187.280275  -1634.618737 -31601.832327     -0.089577                    
P  3  -4599.705193 -18150.363022 -18914.375693    185.785768                    
V  3  21136.967623  11218.818543 -15852.114552     -0.012604                    
P  5 -15671.097380   7562.738563  20000.603748      0.571693                    
V  5 -21764.048390 -13611.863792 -11628.745448     -0.001721                    
P  6 -23701.077158   4600.214551 -11065.642004    179.973126                    
V  6  11332.429431  -8596.194241 -27704.946018     -0.106039                    
P  7  -9712.276603 -12248.885068  21768.935571    -42.998634                    
V  7  23786.096380 -12777.422424   2989.875618     -0.075889                    
P  8   5760.427978 -24486.084807   8223.874573   -147.158465                    
V  8   2442.733813  10461.211844  29744.046971     -0.014517                    
P  9  -8926.680638 -21532.334946  12684.996150    393.089187                    
V  9   2601.060688 -16179.393136 -25565.133594     -0.076538                    
P 10  23992.136261  10692.070848  -4542.533142     18.379264                    
V 10   3683.384134   5165.455228  30976.342235     -0.118019                    
P 11   5667.277140 -23564.514472 -11684.727648   -586.179522                    
V 11  10907.680319  -9508.433142  25381.401945      0.086038                    
P 12   1752.815745  17580.485036 -20101.294985    233.838325                    
V 12 -20887.588289 -13646.243711 -13742.746593     -0.035312                    
P 13 -12655.001995  18238.803930  14436.664598    -59.407845                    
V 13    629.680143 -18623.581456  23948.481782      0.017675                    
P 14  15212.567727  -3054.763572 -21212.019515    -76.406538                    
V 14  -2099.039123  27653.604413  -5585.909968      0.016895                    
P 15  -3254.767175  25164.460858   6870.337308   -307.498415                    
V 15  -4712.879730  -8877.081033  29554.786150      0.022833                    
P 16  15691.487990  -5572.822555  20607.226388    -47.493827                    
V 16  21035.425914  16007.856953 -11163.747568     -0.030532                    
P 17 -13747.696485  -6619.108586 -21348.976123     70.491028                    
V 17   2492.846909 -27883.248152   6825.838814      0.064189                    
P 18  13592.820089 -19107.302970 -12842.317789     61.318938                    
V 18  14513.039413  -6163.962583  25649.369814      0.031709                    
P 19 -15074.503473   1652.732289 -22115.854407   -307.500460                    
V 19   3024.610070 -27113.662855  -4078.842662      0.046871                    
P 20  21942.041422  14123.184414   5275.347660    525.333191                    
V 20  -7674.987872    436.278906  30010.362402      0.002272                    
P 21  14555.258736   8759.192282  21183.716568   -174.618227                    
V 21 -20830.673167  14168.571407   8949.722779      0.072379                    
P 22   3111.804760 -15918.509634 -20811.012808   -715.871341                    
V 22  24438.408772  11688.635133  -5145.633932     -0.057802                    
P 23  -1141.508900 -26284.575667   1554.168578   -182.104996                    
V 23   3716.202552  -1601.395544 -31536.892251      0.016903                    
P 24  -8021.697914  19196.078559 -16476.858411    -67.355838                    
V 24 -18960.068010   8955.305660  20181.091033     -0.005089                    
P 25  14604.956035  18745.452405 -12334.113178   -765.041603                    
V 25 -13972.086137  -6305.708611 -26342.916045     -0.032895                    
P 26  22437.311002   1019.769883  14291.502487    225.112344                    
V 26  14670.156816  10895.641185 -23598.483190      0.094728                    
P 27  11990.813993 -15772.560734  17426.381771   -155.959393                    
V 27   1205.226566  22444.907740  19654.488662     -0.100418                    
P 28 -22480.713919 -13333.983095  -3801.576167    767.499895                    
V 28  -3163.640101  -5135.508105  31797.906969     -0.003489                    
P 29   4373.694805  24332.997753   9661.184988    178.295453                    
V 29  -2867.647738  12092.224370 -29057.895303     -0.095417                    
P 30 -19040.571779  -5093.242050  17916.329472   -122.479400                    
V 30  19513.047017 -11721.619945  17235.411164     -0.073054                    
P 31  24518.679375  -5232.265183  -9418.437631     31.617744                    
V 31  -9489.994034   7387.964096 -28378.597064     -0.026270                    
P 32  15016.037160   4637.456698 -21362.261114    -46.773550                    
V 32   -761.887033  27264.997317   5250.151783      0.161307                    
EOF
